sat12962
1 12962U 81053EH  20046.84624675  .00000555  00000-0  38932-3 0  9994
2 12962  82.9674 350.1582 0030231   4.8046  23.0595 13.96466319937105
